NORAD_CAT_ID,OBJECT_NAME,OBJECT_TYPE,EPOCH,MEAN_MOTION,ECCENTRICITY,INCLINATION,RA_OF_ASC_NODE,ARG_OF_PERICENTER,MEAN_ANOMALY,BSTAR,MEAN_MOTION_DOT,MEAN_MOTION_DDOT,TLE_LINE0,TLE_LINE1,TLE_LINE2,SEMIMAJOR_AXIS,PERIOD,APOGEE,PERIGEE,DECAYED
53427.0,STARLINK-4541,PAYLOAD,2022-09-28 14:00:01,15.49983801,0.0002345,53.218,5.1833,47.6964,113.7155,-0.0016648,-0.00094149,0.0,0 STARLINK-4541,1 53427U 22097AR  22271.58334491 -.00094149  00000-0 -16648-2 0  9998,2 53427  53.2180   5.1833 0002345  47.6964 113.7155 15.49983801  8180,6794.91,92.904,418.369,415.182,0.0
53427.0,STARLINK-4541,PAYLOAD,2022-09-28 22:00:00,15.49930292,0.0002207,53.2181,3.5894,45.4882,176.8544,-0.00042381,-0.00024471,0.0,0 STARLINK-4541,1 53427U 22097AR  22271.91667824 -.00024471  00000-0 -42381-3 0  9999,2 53427  53.2181   3.5894 0002207  45.4882 176.8544 15.49930292  1307,6795.066999999999,92.907,418.431,415.432,0.0
53427.0,STARLINK-4541,PAYLOAD,2022-09-29 06:00:00,15.49939806,0.0002061999999999,53.2184,1.9951,48.7313,234.562,-0.0011353,-0.00064487,0.0,0 STARLINK-4541,1 53427U 22097AR  22272.25001157 -.00064487  00000-0 -11353-2 0  9993,2 53427  53.2184   1.9951 0002062  48.7313 234.5620 15.49939806  8281,6795.0390000000025,92.907,418.305,415.503,0.0
53427.0,STARLINK-4541,PAYLOAD,2022-09-29 14:00:01,15.49869789,0.0002251,53.2184,0.4041,42.1117,302.1376,0.0003286,0.00018232,0.0,0 STARLINK-4541,1 53427U 22097AR  22272.58334491  .00018232  00000-0  32860-3 0  9991,2 53427  53.2184   0.4041 0002251  42.1117 302.1376 15.49869789  1303,6795.244000000002,92.911,418.638,415.579,0.0
53427.0,STARLINK-4541,PAYLOAD,2022-09-29 22:00:00,15.49904359,0.0002181,53.2184,358.8101,41.6047,3.5456,-0.00031558,-0.00018335,0.0,0 STARLINK-4541,1 53427U 22097AR  22272.91667824 -.00018335  00000-0 -31558-3 0  9996,2 53427  53.2184 358.8101 0002181  41.6047   3.5456 15.49904359  8398,6795.143,92.909,418.49,415.526,0.0
53427.0,STARLINK-4541,PAYLOAD,2022-09-30 14:00:01,15.49932821,0.000237,53.2181,355.6251,40.3112,126.7108,-0.00088788,-0.0005061,0.0,0 STARLINK-4541,1 53427U 22097AR  22273.58334491 -.00050610  00000-0 -88788-3 0  9990,2 53427  53.2181 355.6251 0002370  40.3112 126.7108 15.49932821  1306,6795.059,92.907,418.535,415.314,0.0
53427.0,STARLINK-4541,PAYLOAD,2022-09-30 16:00:00,15.49921711,0.0002320999999999,53.2179,355.2278,38.0559,234.2077,-0.0007728,-0.00044127,0.0,0 STARLINK-4541,1 53427U 22097AR  22273.66667824 -.00044127  00000-0 -77280-3 0  9999,2 53427  53.2179 355.2278 0002321  38.0559 234.2077 15.49921711  8508,6795.092,92.908,418.534,415.38,0.0
53427.0,STARLINK-4541,PAYLOAD,2022-09-30 22:00:00,15.500790300000002,0.0002112,53.2174,354.0346,39.3638,188.5782,-0.0098104,-0.00525154,0.0,0 STARLINK-4541,1 53427U 22097AR  22273.91667824 -.00525154  00000-0 -98104-2 0  9998,2 53427  53.2174 354.0346 0002112  39.3638 188.5782 15.50079030  1301,6794.632,92.898,417.932,415.062,0.0
53427.0,STARLINK-4541,PAYLOAD,2022-10-01 06:00:00,15.4962344,0.0001385999999999,53.2175,352.4459,324.9136,323.9795,-0.0073173999999999,-0.00391994,0.0,0 STARLINK-4541,1 53427U 22097AR  22274.25001157 -.00391994  00000-0 -73174-2 0  9990,2 53427  53.2175 352.4459 0001386 324.9136 323.9795 15.49623440  8592,6795.964,92.926,418.771,416.887,0.0
53427.0,STARLINK-4541,PAYLOAD,2022-10-01 14:00:01,15.49062681,0.0002404,53.2179,350.8591,296.93,52.5779,-0.012046,-0.0061493,0.0,0 STARLINK-4541,1 53427U 22097AR  22274.58334491 -.00614930  00000-0 -12046-1 0  9994,2 53427  53.2179 350.8591 0002404 296.9300  52.5779 15.49062681  8645,6797.604,92.959,421.103,417.835,0.0
53427.0,STARLINK-4541,PAYLOAD,2022-10-01 22:00:00,15.48620846,0.0004414,53.2174,349.271,278.9827,130.2052,-0.021474,-0.01059233,0.0,0 STARLINK-4541,1 53427U 22097AR  22274.91667824 -.01059233  00000-0 -21474-1 0  9995,2 53427  53.2174 349.2710 0004414 278.9827 130.2052 15.48620846  8709,6798.897,92.986,423.763,417.761,0.0
53427.0,STARLINK-4541,PAYLOAD,2022-10-02 14:00:01,15.4717598,0.0001648,53.2177,346.1012,40.1991,125.895,-0.02481,-0.01169325,0.0,0 STARLINK-4541,1 53427U 22097AR  22275.58334491 -.01169325  00000-0 -24810-1 0  9991,2 53427  53.2177 346.1012 0001648  40.1991 125.8950 15.47175980  1309,6803.129,93.073,426.115,423.87300000000016,0.0
53427.0,STARLINK-4541,PAYLOAD,2022-10-02 22:00:00,15.46342817,0.0001561999999999,53.2175,344.5196,47.1562,176.0802,-0.023255,-0.01058208,0.0,0 STARLINK-4541,1 53427U 22097AR  22275.91667824 -.01058208  00000-0 -23255-1 0  9996,2 53427  53.2175 344.5196 0001562  47.1562 176.0802 15.46342817  1306,6805.571999999999,93.123,428.5,426.374,0.0
53427.0,STARLINK-4541,PAYLOAD,2022-10-03 14:00:01,15.44845241,0.0001511,53.2178,341.3609,40.7054,293.9886,-0.025169,-0.0110031,0.0,0 STARLINK-4541,1 53427U 22097AR  22276.58334491 -.01100310  00000-0 -25169-1 0  9999,2 53427  53.2178 341.3609 0001511  40.7054 293.9886 15.44845241  1300,6809.97,93.213,432.864,430.806,0.0
53427.0,STARLINK-4541,PAYLOAD,2022-10-03 22:00:00,15.44064672,0.0001501,53.2176,339.7843,38.4156,350.6553,-0.025148,-0.01057974,0.0,0 STARLINK-4541,1 53427U 22097AR  22276.91667824 -.01057974  00000-0 -25148-1 0  9999,2 53427  53.2176 339.7843 0001501  38.4156 350.6553 15.44064672  1308,6812.265,93.26,435.152,433.107,0.0
53427.0,STARLINK-4541,PAYLOAD,2022-10-04 14:00:01,15.42541976,0.0001759,53.2177,336.6380000000001,39.6662,95.3982,-0.0263,-0.01066018,0.0,0 STARLINK-4541,1 53427U 22097AR  22277.58334491 -.01066018  00000-0 -26300-1 0  9994,2 53427  53.2177 336.6380 0001759  39.6662  95.3982 15.42541976  1305,6816.746999999999,93.352,439.811,437.413,0.0
53427.0,STARLINK-4541,PAYLOAD,2022-10-04 22:00:00,15.41784869,0.0001601,53.2177,335.0651,47.1188,139.5733,-0.0270769999999999,-0.01069528,0.0,0 STARLINK-4541,1 53427U 22097AR  22277.91667824 -.01069528  00000-0 -27077-1 0  9991,2 53427  53.2177 335.0651 0001601  47.1188 139.5733 15.41784869  9168,6818.979,93.398,441.935,439.752,0.0
53427.0,STARLINK-4541,PAYLOAD,2022-10-05 14:00:01,15.40271946,0.0001494,53.2178,331.9286,47.2728,239.9971,-0.028707,-0.01077281,0.0,0 STARLINK-4541,1 53427U 22097AR  22278.58335648 -.01077281  00000-0 -28707-1 0  9997,2 53427  53.2178 331.9286 0001494  47.2728 239.9971 15.40271946  1302,6823.443,93.49,446.327,444.289,0.0
53427.0,STARLINK-4541,PAYLOAD,2022-10-05 22:00:00,15.39507049,0.0001334,53.2176,330.3622,48.8745,287.2243,-0.0292529999999999,-0.0107079,0.0,0 STARLINK-4541,1 53427U 22097AR  22278.91667824 -.01070790  00000-0 -29253-1 0  9993,2 53427  53.2176 330.3622 0001334  48.8745 287.2243 15.39507049  9317,6825.703,93.536,448.479,446.657,0.0
53427.0,STARLINK-4541,PAYLOAD,2022-10-06 14:00:01,15.37997031,0.0001501,53.2175,327.237,41.8682,29.2667,-0.0311019999999999,-0.01082282,0.0,0 STARLINK-4541,1 53427U 22097AR  22279.58334491 -.01082282  00000-0 -31102-1 0  9993,2 53427  53.2175 327.2370 0001501  41.8682  29.2667 15.37997031  1307,6830.17,93.628,453.06,451.01,0.0
53427.0,STARLINK-4541,PAYLOAD,2022-10-06 22:42:55,15.37158171,0.0001355,53.2176,325.5362,55.3357,226.9121,-0.031436,-0.01065738,0.0,0 STARLINK-4541,1 53427U 22097AR  22279.94646991 -.01065738  00000-0 -31436-1 0  9991,2 53427  53.2176 325.5362 0001355  55.3357 226.9121 15.37158171  1301,6832.655,93.679,455.445,453.594,0.0
53427.0,STARLINK-4541,PAYLOAD,2022-10-07 00:00:00,15.3703696,0.0001489,53.2174,325.2856,55.1699,163.5177,-0.031609,-0.01067279,0.0,0 STARLINK-4541,1 53427U 22097AR  22280.00001157 -.01067279  00000-0 -31609-1 0  9993,2 53427  53.2174 325.2856 0001489  55.1699 163.5177 15.37036960  9484,6833.014,93.687,455.896,453.861,0.0
53427.0,STARLINK-4541,PAYLOAD,2022-10-07 14:00:01,15.35709204,0.0001682,53.2175,322.5612,47.1511,159.7047,-0.033014,-0.0106777,0.0,0 STARLINK-4541,1 53427U 22097AR  22280.58334491 -.01067770  00000-0 -33014-1 0  9994,2 53427  53.2175 322.5612 0001682  47.1511 159.7047 15.35709204  1306,6836.9519999999975,93.768,459.967,457.667,0.0
53427.0,STARLINK-4541,PAYLOAD,2022-10-07 22:00:00,15.34946626,0.0001610999999999,53.2175,321.0051,43.3781,206.8938,-0.033713,-0.0106422999999999,0.0,0 STARLINK-4541,1 53427U 22097AR  22280.91667824 -.01064230  00000-0 -33713-1 0  9994,2 53427  53.2175 321.0051 0001611  43.3781 206.8938 15.34946626  9622,6839.215999999999,93.814,462.1830000000001,459.979,0.0
53427.0,STARLINK-4541,PAYLOAD,2022-10-08 14:00:01,15.33434839,0.0001536,53.2174,317.9016,42.9413,291.4158,-0.035725,-0.01073702,0.0,0 STARLINK-4541,1 53427U 22097AR  22281.58334491 -.01073702  00000-0 -35725-1 0  9998,2 53427  53.2174 317.9016 0001536  42.9413 291.4158 15.33434839  1307,6843.71,93.907,466.627,464.524,0.0
53427.0,STARLINK-4541,PAYLOAD,2022-10-08 22:00:00,15.32668585,0.0001475,53.2175,316.3513,41.0871,333.9494,-0.03628,-0.01064952,0.0,0 STARLINK-4541,1 53427U 22097AR  22281.91667824 -.01064952  00000-0 -36280-1 0  9998,2 53427  53.2175 316.3513 0001475  41.0871 333.9494 15.32668585  1304,6845.991,93.954,468.866,466.846,0.0
53427.0,STARLINK-4541,PAYLOAD,2022-10-09 14:00:01,15.31160327,0.0001605,53.2172,313.258,43.3147,50.3294,-0.038579,-0.010787,0.0,0 STARLINK-4541,1 53427U 22097AR  22282.58334491 -.01078700  00000-0 -38579-1 0  9992,2 53427  53.2172 313.2580 0001605  43.3147  50.3294 15.31160327  1305,6850.486,94.046,473.451,471.252,0.0
53427.0,STARLINK-4541,PAYLOAD,2022-10-09 22:00:00,15.30389897,0.0001740999999999,53.2174,311.7133,39.6704,91.9171,-0.038941,-0.01064213,0.0,0 STARLINK-4541,1 53427U 22097AR  22282.91667824 -.01064213  00000-0 -38941-1 0  9995,2 53427  53.2174 311.7133 0001741  39.6704  91.9171 15.30389897  9938,6852.785,94.094,475.843,473.457,0.0
53427.0,STARLINK-4541,PAYLOAD,2022-10-10 14:00:01,15.28871325,0.0001805,53.2173,308.6321,41.25,163.4733,-0.040811,-0.01063985,0.0,0 STARLINK-4541,1 53427U 22097AR  22283.58334491 -.01063985  00000-0 -40811-1 0  9994,2 53427  53.2173 308.6321 0001805  41.2500 163.4733 15.28871325  1306,6857.321999999999,94.187,480.425,477.949,0.0
